{
    "links": {
        "self": "http://www.neowsapp.com/rest/v1/neo/3114075?api_key=iIulBulltgU6a56xZRHN4H3l9WmuAYTsLGpBGhQ2"
    },
    "id": "3114075",
    "neo_reference_id": "3114075",
    "name": "(2002 DO3)",
    "designation": "2002 DO3",
    "nasa_jpl_url": "http://ssd.jpl.nasa.gov/sbdb.cgi?sstr=3114075",
    "absolute_magnitude_h": 22.0,
    "estimated_diameter": {
        "kilometers": {
            "estimated_diameter_min": 0.1058168859,
            "estimated_diameter_max": 0.2366137501
        },
        "meters": {
            "estimated_diameter_min": 105.8168859331,
            "estimated_diameter_max": 236.6137501138
        },
        "miles": {
            "estimated_diameter_min": 0.0657515442,
            "estimated_diameter_max": 0.1470249225
        },
        "feet": {
            "estimated_diameter_min": 347.1682720448,
            "estimated_diameter_max": 776.2918559233
        }
    },
    "is_potentially_hazardous_asteroid": true,
    "close_approach_data": [
        {
            "close_approach_date": "1908-07-15",
            "close_approach_date_full": "1908-Jul-15 21:54",
            "epoch_date_close_approach": -1939601160000,
            "relative_velocity": {
                "kilometers_per_second": "22.5591021316",
                "kilometers_per_hour": "81212.7676739267",
                "miles_per_hour": "50462.4555582796"
            },
            "miss_distance": {
                "astronomical": "0.4330141921",
                "lunar": "168.4425207269",
                "kilometers": "64778000.817930827",
                "miles": "40251183.2360943326"
            },
            "orbiting_body": "Earth"
        },
        {
            "close_approach_date": "1997-02-19",
            "close_approach_date_full": "1997-Feb-19 10:35",
            "epoch_date_close_approach": 856348500000,
            "relative_velocity": {
                "kilometers_per_second": "23.8443347389",
                "kilometers_per_hour": "85839.6050599057",
                "miles_per_hour": "53337.392377362"
            },
            "miss_distance": {
                "astronomical": "0.4727402548",
                "lunar": "183.8959591172",
                "kilometers": "70720935.181337276",
                "miles": "43943951.4135793688"
            },
            "orbiting_body": "Earth"
        },
        {
            "close_approach_date": "2002-03-26",
            "close_approach_date_full": "2002-Mar-26 16:16",
            "epoch_date_close_approach": 1017159360000,
            "relative_velocity": {
                "kilometers_per_second": "9.8972884589",
                "kilometers_per_hour": "35630.2384520759",
                "miles_per_hour": "22139.2445537357"
            },
            "miss_distance": {
                "astronomical": "0.0517144091",
                "lunar": "20.1169051399",
                "kilometers": "7736365.449668617",
                "miles": "4807154.5797042346"
            },
            "orbiting_body": "Earth"
        },
        {
            "close_approach_date": "2007-06-26",
            "close_approach_date_full": "2007-Jun-26 22:19",
            "epoch_date_close_approach": 1182896340000,
            "relative_velocity": {
                "kilometers_per_second": "13.1579131568",
                "kilometers_per_hour": "47368.4873643418",
                "miles_per_hour": "29432.93594036"
            },
            "miss_distance": {
                "astronomical": "0.1177854149",
                "lunar": "45.8185263961",
                "kilometers": "17620447.186106263",
                "miles": "10948838.1770739094"
            },
            "orbiting_body": "Earth"
        },
        {
            "close_approach_date": "2063-02-20",
            "close_approach_date_full": "2063-Feb-20 12:05",
            "epoch_date_close_approach": 2939198700000,
            "relative_velocity": {
                "kilometers_per_second": "24.0570458221",
                "kilometers_per_hour": "86605.3649596061",
                "miles_per_hour": "53813.2057994841"
            },
            "miss_distance": {
                "astronomical": "0.4783818522",
                "lunar": "186.0905405058",
                "kilometers": "71564906.135774814",
                "miles": "44468370.6470238732"
            },
            "orbiting_body": "Earth"
        }
    ],
    "orbital_data": {
        "orbit_id": "7",
        "orbit_determination_date": "2017-04-06 09:15:24",
        "first_observation_date": "2002-02-21",
        "last_observation_date": "2002-03-27",
        "data_arc_in_days": 34,
        "observations_used": 80,
        "orbit_uncertainty": "6",
        "minimum_orbit_intersection": ".0293159",
        "jupiter_tisserand_invariant": "3.831",
        "epoch_osculation": "2459000.5",
        "eccentricity": ".4991938584784564",
        "semi_major_axis": "1.860296098125076",
        "inclination": "3.80098124500327",
        "ascending_node_longitude": "56.12641799800337",
        "orbital_period": "926.769087913341",
        "perihelion_distance": ".931647710989602",
        "perihelion_argument": "165.5689529041487",
        "aphelion_distance": "2.788944485260549",
        "perihelion_time": "2458874.640244321918",
        "mean_anomaly": "48.88975326758679",
        "mean_motion": ".3884462750160937",
        "equinox": "J2000",
        "orbit_class": {
            "orbit_class_type": "APO",
            "orbit_class_description": "Near-Earth asteroid orbits which cross the Earth’s orbit similar to that of 1862 Apollo",
            "orbit_class_range": "a (semi-major axis) > 1.0 AU; q (perihelion) < 1.017 AU"
        }
    },
    "is_sentry_object": false
}